HAWK-C                  
1 43799U 18099AT  26068.67261865  .00009431  00000+0  35663-3 0  9994
2 43799  97.4027 122.6817 0040363 277.4052  82.2601 15.26407167398720
STARLINK-35822          
1 66362U 25254Q   26068.76448965  .00029296  00000+0  99751-3 0  9993
2 66362  53.1587 232.3529 0001038  86.4060 273.7060 15.30194591 18985
